{
  "type": "FeatureCollection",
  "features": [
    {
      "type": "Feature",
      "properties": {
        "norad_id": 29268,
        "name": "ARIRANG-2 (KOMPSAT-2)",
        "group": "resource",
        "lat": 56.141831389885965,
        "lon": 158.73963449510245,
        "alt_km": 673.6142450561174,
        "timestamp": "2025-12-07T20:38:13.733969+00:00",
        "meta_object_name": "ARIRANG-2 (KOMPSAT-2)",
        "meta_object_id": "2006-031A",
        "meta_epoch": "2025-12-07T05:52:09.503616",
        "meta_mean_motion": 14.64486388,
        "meta_eccentricity": 0.0013761,
        "meta_inclination": 97.827,
        "meta_ra_of_asc_node": 169.9855,
        "meta_arg_of_pericenter": 327.4052,
        "meta_mean_anomaly": 87.3068,
        "meta_ephemeris_type": 0,
        "meta_classification_type": "U",
        "meta_norad_cat_id": 29268,
        "meta_element_set_no": 999,
        "meta_rev_at_epoch": 3338,
        "meta_bstar": 0.0001513705,
        "meta_mean_motion_dot": 7.58e-06,
        "meta_mean_motion_ddot": 0,
        "tle_line1": "1 29268U 06031A   25341.24455444  .00000758  00000+0  15137-3 0  9993",
        "tle_line2": "2 29268  97.8270 169.9855 0013761 327.4052  87.3068 14.64486388 33387"
      },
      "geometry": {
        "type": "Point",
        "coordinates": [
          158.73963449510245,
          56.141831389885965
        ]
      }
    },
    {
      "type": "Feature",
      "properties": {
        "norad_id": 29709,
        "name": "LAPAN-TUBSAT",
        "group": "resource",
        "lat": -20.19671650474181,
        "lon": -25.071221449063383,
        "alt_km": 619.8186071578666,
        "timestamp": "2025-12-07T20:38:13.733979+00:00",
        "meta_object_name": "LAPAN-TUBSAT",
        "meta_object_id": "2007-001A",
        "meta_epoch": "2025-12-07T06:10:51.567456",
        "meta_mean_motion": 14.85657922,
        "meta_eccentricity": 0.00136381,
        "meta_inclination": 98.1252,
        "meta_ra_of_asc_node": 331.3015,
        "meta_arg_of_pericenter": 90.5292,
        "meta_mean_anomaly": 269.7485,
        "meta_ephemeris_type": 0,
        "meta_classification_type": "U",
        "meta_norad_cat_id": 29709,
        "meta_element_set_no": 999,
        "meta_rev_at_epoch": 2265,
        "meta_bstar": 0.00014520992,
        "meta_mean_motion_dot": 1.203e-05,
        "meta_mean_motion_ddot": 0,
        "tle_line1": "1 29709U 07001A   25341.25754129  .00001203  00000+0  14521-3 0  9996",
        "tle_line2": "2 29709  98.1252 331.3015 0013638  90.5292 269.7485 14.85657922 22655"
      },
      "geometry": {
        "type": "Point",
        "coordinates": [
          -25.071221449063383,
          -20.19671650474181
        ]
      }
    },
    {
      "type": "Feature",
      "properties": {
        "norad_id": 31113,
        "name": "HAIYANG-1B",
        "group": "resource",
        "lat": 73.07378020761132,
        "lon": 175.12259180894193,
        "alt_km": 775.2840395405392,
        "timestamp": "2025-12-07T20:38:13.733990+00:00",
        "meta_object_name": "HAIYANG-1B",
        "meta_object_id": "2007-010A",
        "meta_epoch": "2025-12-07T05:02:49.862112",
        "meta_mean_motion": 14.30962174,
        "meta_eccentricity": 0.00144822,
        "meta_inclination": 98.3309,
        "meta_ra_of_asc_node": 325.717,
        "meta_arg_of_pericenter": 53.3397,
        "meta_mean_anomaly": 306.9116,
        "meta_ephemeris_type": 0,
        "meta_classification_type": "U",
        "meta_norad_cat_id": 31113,
        "meta_element_set_no": 999,
        "meta_rev_at_epoch": 97317,
        "meta_bstar": 0.00010554065,
        "meta_mean_motion_dot": 2.36e-06,
        "meta_mean_motion_ddot": 0,
        "tle_line1": "1 31113U 07010A   25341.21029933  .00000236  00000+0  10554-3 0  9999",
        "tle_line2": "2 31113  98.3309 325.7170 0014482  53.3397 306.9116 14.30962174973177"
      },
      "geometry": {
        "type": "Point",
        "coordinates": [
          175.12259180894193,
          73.07378020761132
        ]
      }
    },
    {
      "type": "Feature",
      "properties": {
        "norad_id": 31598,
        "name": "COSMO-SKYMED 1",
        "group": "resource",
        "lat": 59.630918709754006,
        "lon": 0.9053817681895181,
        "alt_km": 573.8316385609214,
        "timestamp": "2025-12-07T20:38:13.734000+00:00",
        "meta_object_name": "COSMO-SKYMED 1",
        "meta_object_id": "2007-023A",
        "meta_epoch": "2025-12-07T05:39:18.552960",
        "meta_mean_motion": 14.95703261,
        "meta_eccentricity": 0.000111,
        "meta_inclination": 97.8835,
        "meta_ra_of_asc_node": 166.5993,
        "meta_arg_of_pericenter": 79.3403,
        "meta_mean_anomaly": 280.7942,
        "meta_ephemeris_type": 0,
        "meta_classification_type": "U",
        "meta_norad_cat_id": 31598,
        "meta_element_set_no": 999,
        "meta_rev_at_epoch": 108,
        "meta_bstar": 0.00051559784,
        "meta_mean_motion_dot": 5.682e-05,
        "meta_mean_motion_ddot": 0,
        "tle_line1": "1 31598U 07023A   25341.23563140  .00005682  00000+0  51560-3 0  9997",
        "tle_line2": "2 31598  97.8835 166.5993 0001110  79.3403 280.7942 14.95703261  1085"
      },
      "geometry": {
        "type": "Point",
        "coordinates": [
          0.9053817681895181,
          59.630918709754006
        ]
      }
    },
    {
      "type": "Feature",
      "properties": {
        "norad_id": 31698,
        "name": "TERRASAR-X",
        "group": "resource",
        "lat": 80.83680355370292,
        "lon": -66.84409451697903,
        "alt_km": 499.7547081457142,
        "timestamp": "2025-12-07T20:38:13.734010+00:00",
        "meta_object_name": "TERRASAR-X",
        "meta_object_id": "2007-026A",
        "meta_epoch": "2025-12-06T14:13:48.566208",
        "meta_mean_motion": 15.19149934,
        "meta_eccentricity": 0.00017836,
        "meta_inclination": 97.4444,
        "meta_ra_of_asc_node": 346.0634,
        "meta_arg_of_pericenter": 82.9925,
        "meta_mean_anomaly": 277.1512,
        "meta_ephemeris_type": 0,
        "meta_classification_type": "U",
        "meta_norad_cat_id": 31698,
        "meta_element_set_no": 999,
        "meta_rev_at_epoch": 2398,
        "meta_bstar": 0.00013540591,
        "meta_mean_motion_dot": 2.777e-05,
        "meta_mean_motion_ddot": 0,
        "tle_line1": "1 31698U 07026A   25340.59292322  .00002777  00000+0  13541-3 0  9999",
        "tle_line2": "2 31698  97.4444 346.0634 0001783  82.9925 277.1512 15.19149934 23984"
      },
      "geometry": {
        "type": "Point",
        "coordinates": [
          -66.84409451697903,
          80.83680355370292
        ]
      }
    },
    {
      "type": "Feature",
      "properties": {
        "norad_id": 32060,
        "name": "WORLDVIEW-1 (WV-1)",
        "group": "resource",
        "lat": -10.094096469121332,
        "lon": 100.73339852920355,
        "alt_km": 496.5521863441945,
        "timestamp": "2025-12-07T20:38:13.734021+00:00",
        "meta_object_name": "WORLDVIEW-1 (WV-1)",
        "meta_object_id": "2007-041A",
        "meta_epoch": "2025-12-07T08:04:47.408448",
        "meta_mean_motion": 15.245567,
        "meta_eccentricity": 7.36e-05,
        "meta_inclination": 97.3846,
        "meta_ra_of_asc_node": 98.8947,
        "meta_arg_of_pericenter": 101.0462,
        "meta_mean_anomaly": 259.0858,
        "meta_ephemeris_type": 0,
        "meta_classification_type": "U",
        "meta_norad_cat_id": 32060,
        "meta_element_set_no": 999,
        "meta_rev_at_epoch": 1365,
        "meta_bstar": 0.00054879315,
        "meta_mean_motion_dot": 0.00013456,
        "meta_mean_motion_ddot": 0,
        "tle_line1": "1 32060U 07041A   25341.33665982  .00013456  00000+0  54879-3 0  9994",
        "tle_line2": "2 32060  97.3846  98.8947 0000736 101.0462 259.0858 15.24556700 13652"
      },
      "geometry": {
        "type": "Point",
        "coordinates": [
          100.73339852920355,
          -10.094096469121332
        ]
      }
    },
    {
      "type": "Feature",
      "properties": {
        "norad_id": 32289,
        "name": "YAOGAN-3",
        "group": "resource",
        "lat": 70.55633318358781,
        "lon": -14.435345100431311,
        "alt_km": 590.63507647385,
        "timestamp": "2025-12-07T20:38:13.734031+00:00",
        "meta_object_name": "YAOGAN-3",
        "meta_object_id": "2007-055A",
        "meta_epoch": "2025-12-07T05:48:26.099136",
        "meta_mean_motion": 14.89819825,
        "meta_eccentricity": 0.00014737,
        "meta_inclination": 97.8368,
        "meta_ra_of_asc_node": 7.9167,
        "meta_arg_of_pericenter": 77.3903,
        "meta_mean_anomaly": 282.748,
        "meta_ephemeris_type": 0,
        "meta_classification_type": "U",
        "meta_norad_cat_id": 32289,
        "meta_element_set_no": 999,
        "meta_rev_at_epoch": 97727,
        "meta_bstar": 0.00043451335,
        "meta_mean_motion_dot": 4.117e-05,
        "meta_mean_motion_ddot": 0,
        "tle_line1": "1 32289U 07055A   25341.24196874  .00004117  00000+0  43451-3 0  9999",
        "tle_line2": "2 32289  97.8368   7.9167 0001473  77.3903 282.7480 14.89819825977279"
      },
      "geometry": {
        "type": "Point",
        "coordinates": [
          -14.435345100431311,
          70.55633318358781
        ]
      }
    }
  ]
}